CCSDS_OEM_VERS = 1.0
CREATION_DATE  = 2017-05-11T11:17:52
ORIGINATOR     = GMAT USER

META_START
OBJECT_NAME          = MOPSSat_alt_35785_km_RAAN_90_100
OBJECT_ID            = SatId
CENTER_NAME          = Earth
REF_FRAME            = EME2000
TIME_SYSTEM          = UTC
START_TIME           = 2017-01-01T00:00:00.000
USEABLE_START_TIME   = 2017-01-01T00:00:00.000
USEABLE_STOP_TIME    = 2017-01-02T00:00:00.000
STOP_TIME            = 2017-01-02T00:00:00.000
INTERPOLATION        = Lagrange
INTERPOLATION_DEGREE = 7 
META_STOP


                                                                                   

2017-01-01T13:17:30.000   1.306906151898850e+04  -4.427610030506022e+04  -1.139339538206275e+02   2.654966301029285e+00   8.750055335633934e-01  -2.325554597944635e-02
2017-01-01T13:17:40.000   1.309560853343518e+04  -4.426734128094350e+04  -1.141664864183072e+02   2.654436323088435e+00   8.767992209233050e-01  -2.325097123539395e-02
2017-01-01T13:17:50.000   1.312215024263088e+04  -4.425856432119884e+04  -1.143989732206802e+02   2.653905239386291e+00   8.785926552386980e-01  -2.324638681788138e-02
2017-01-01T13:18:00.000   1.314868663539814e+04  -4.424976942839922e+04  -1.146314141299624e+02   2.653373049953546e+00   8.803858359507288e-01  -2.324179272713365e-02
2017-01-01T13:18:10.000   1.317521770055765e+04  -4.424095660512378e+04  -1.148638090483522e+02   2.652839754821035e+00   8.821787625002747e-01  -2.323718896337685e-02
2017-01-01T13:18:20.000   1.320174342702322e+04  -4.423212585392711e+04  -1.150961578788638e+02   2.652305354017853e+00   8.839714343343525e-01  -2.323257552682214e-02
2017-01-01T13:18:30.000   1.322826380373840e+04  -4.422327717735944e+04  -1.153284605247710e+02   2.651769847572592e+00   8.857638509018356e-01  -2.322795241767628e-02
2017-01-01T13:18:40.000   1.325477881967644e+04  -4.421441057796676e+04  -1.155607168896077e+02   2.651233235513346e+00   8.875560116534537e-01  -2.322331963614172e-02
2017-01-01T13:18:50.000   1.328128846390334e+04  -4.420552605826899e+04  -1.157929268777198e+02   2.650695517866389e+00   8.893479160460568e-01  -2.321867718240520e-02
2017-01-01T13:19:00.000   1.330779272548320e+04  -4.419662362079234e+04  -1.160250903934358e+02   2.650156694658126e+00   8.911395635362123e-01  -2.321402505665456e-02
2017-01-01T13:19:10.000   1.333429159346870e+04  -4.418770326807247e+04  -1.162572073409838e+02   2.649616765915296e+00   8.929309535795623e-01  -2.320936325908052e-02
2017-01-01T13:19:20.000   1.336078505687431e+04  -4.417876500266238e+04  -1.164892776242573e+02   2.649075731665448e+00   8.947220856290207e-01  -2.320469178988080e-02
2017-01-01T13:19:30.000   1.338727310465561e+04  -4.416980882714087e+04  -1.167213011466328e+02   2.648533591937439e+00   8.965129591333623e-01  -2.320001064926440e-02
2017-01-01T13:19:40.000   1.341375572578697e+04  -4.416083474408567e+04  -1.169532778116515e+02   2.647990346759828e+00   8.983035735424816e-01  -2.319531983743769e-02
2017-01-01T13:19:50.000   1.344023290891315e+04  -4.415184275619337e+04  -1.171852075199665e+02   2.647445996168126e+00   9.000939282838233e-01  -2.319061935466711e-02
2017-01-01T13:20:00.000   1.346670464277164e+04  -4.414283286613453e+04  -1.174170901730430e+02   2.646900540196027e+00   9.018840227909479e-01  -2.318590920120338e-02
2017-01-01T13:20:10.000   1.349317091603555e+04  -4.413380507660731e+04  -1.176489256717817e+02   2.646353978878646e+00   9.036738564929083e-01  -2.318118937730950e-02
2017-01-01T13:20:20.000   1.351963171792241e+04  -4.412475939013000e+04  -1.178807139218519e+02   2.645806312239978e+00   9.054634288554184e-01  -2.317645988315242e-02
2017-01-01T13:20:30.000   1.354608703758692e+04  -4.411569580924790e+04  -1.181124548283716e+02   2.645257540305403e+00   9.072527393397851e-01  -2.317172071891103e-02
2017-01-01T13:20:40.000   1.357253686425855e+04  -4.410661433648669e+04  -1.183441482971143e+02   2.644707663098876e+00   9.090417874122183e-01  -2.316697188475193e-02
2017-01-01T13:20:50.000   1.359898118689832e+04  -4.409751497446763e+04  -1.185757942315004e+02   2.644156680649894e+00   9.108305725206218e-01  -2.316221338088954e-02
2017-01-01T13:21:00.000   1.362541999445382e+04  -4.408839772582280e+04  -1.188073925348333e+02   2.643604592988364e+00   9.126190941118358e-01  -2.315744520754179e-02
2017-01-01T13:21:10.000   1.365185327585899e+04  -4.407926259319401e+04  -1.190389431102956e+02   2.643051400144548e+00   9.144073516316199e-01  -2.315266736492972e-02
2017-01-01T13:21:20.000   1.367828101978063e+04  -4.407010957932311e+04  -1.192704458587296e+02   2.642497102154520e+00   9.161953445074933e-01  -2.314787985332453e-02
2017-01-01T13:21:30.000   1.370470321496007e+04  -4.406093868693141e+04  -1.195019006816301e+02   2.641941699052873e+00   9.179830721718634e-01  -2.314308267298460e-02
2017-01-01T13:21:40.000   1.373111985007849e+04  -4.405174991876688e+04  -1.197333074799644e+02   2.641385190875567e+00   9.197705340529072e-01  -2.313827582418020e-02
2017-01-01T13:21:50.000   1.375753091435308e+04  -4.404254327739681e+04  -1.199646661593950e+02   2.640827577647388e+00   9.215577296149123e-01  -2.313345930708494e-02
2017-01-01T13:22:00.000   1.378393639694082e+04  -4.403331876541502e+04  -1.201959766250561e+02   2.640268859394481e+00   9.233446583179350e-01  -2.312863312188423e-02
2017-01-01T13:22:10.000   1.381033628707339e+04  -4.402407638539532e+04  -1.204272387827363e+02   2.639709036141540e+00   9.251313196269236e-01  -2.312379726875094e-02
2017-01-01T13:22:20.000   1.383673057371447e+04  -4.401481614000872e+04  -1.206584525358758e+02   2.639148107918901e+00   9.269177129885450e-01  -2.311895174790664e-02
2017-01-01T13:22:30.000   1.386311924581444e+04  -4.400553803193707e+04  -1.208896177877979e+02   2.638586074757323e+00   9.287038378483982e-01  -2.311409655957657e-02
2017-01-01T13:22:40.000   1.388950229230995e+04  -4.399624206387220e+04  -1.211207344417054e+02   2.638022936687920e+00   9.304896936510031e-01  -2.310923170398897e-02
2017-01-01T13:22:50.000   1.391587970187111e+04  -4.398692823860749e+04  -1.213518023984654e+02   2.637458693747726e+00   9.322752798226601e-01  -2.310435718142330e-02
2017-01-01T13:23:00.000   1.394225146324241e+04  -4.397759655891541e+04  -1.215828215595965e+02   2.636893345972265e+00   9.340605957945494e-01  -2.309947299214588e-02
2017-01-01T13:23:10.000   1.396861756510575e+04  -4.396824702759637e+04  -1.218137918260680e+02   2.636326893398514e+00   9.358456409934517e-01  -2.309457913643560e-02
2017-01-01T13:23:20.000   1.399497799668543e+04  -4.395887964726415e+04  -1.220447131036009e+02   2.635759336051903e+00   9.376304148827060e-01  -2.308967561447165e-02
2017-01-01T13:23:30.000   1.402133274714157e+04  -4.394949442056100e+04  -1.222755852973532e+02   2.635190673959344e+00   9.394149169211482e-01  -2.308476242644589e-02
2017-01-01T13:23:40.000   1.404768180572680e+04  -4.394009135010212e+04  -1.225064083132927e+02   2.634620907145874e+00   9.411991465737105e-01  -2.307983957253408e-02
2017-01-01T13:23:50.000   1.407402516136481e+04  -4.393067043862386e+04  -1.227371820545056e+02   2.634050035643632e+00   9.429831032829032e-01  -2.307490705297325e-02
2017-01-01T13:24:00.000   1.410036280299825e+04  -4.392123168886195e+04  -1.229679064242433e+02   2.633478059484468e+00   9.447667864923536e-01  -2.306996486799797e-02
2017-01-01T13:24:10.000   1.412669471950847e+04  -4.391177510357931e+04  -1.231985813252203e+02   2.632904978701653e+00   9.465501956413772e-01  -2.306501301785504e-02
2017-01-01T13:24:20.000   1.415302089974696e+04  -4.390230068555642e+04  -1.234292066598885e+02   2.632330793329275e+00   9.483333301670980e-01  -2.306005150279835e-02
2017-01-01T13:24:30.000   1.417934133254975e+04  -4.389280843758484e+04  -1.236597823305643e+02   2.631755503401861e+00   9.501161895054300e-01  -2.305508032308554e-02
2017-01-01T13:24:40.000   1.420565600676893e+04  -4.388329836245605e+04  -1.238903082397042e+02   2.631179108953686e+00   9.518987730932105e-01  -2.305009947897208e-02
2017-01-01T13:24:50.000   1.423196491128770e+04  -4.387377046295699e+04  -1.241207842900368e+02   2.630601610018519e+00   9.536810803692154e-01  -2.304510897070906e-02
2017-01-01T13:25:00.000   1.425826803505093e+04  -4.386422474185770e+04  -1.243512103848304e+02   2.630023006628863e+00   9.554631107762356e-01  -2.304010879853663e-02
2017-01-01T13:25:10.000   1.428456536698545e+04  -4.385466120194081e+04  -1.245815864271949e+02   2.629443298817742e+00   9.572448637556715e-01  -2.303509896269941e-02
2017-01-01T13:25:20.000   1.431085689634597e+04  -4.384507984587376e+04  -1.248119123231124e+02   2.628862486610963e+00   9.590263387709841e-01  -2.303007946337963e-02
2017-01-01T13:25:30.000   1.433714261229575e+04  -4.383548067636325e+04  -1.250421879777628e+02   2.628280570036467e+00   9.608075352792707e-01  -2.302505030077799e-02
2017-01-01T13:25:40.000   1.436342250406514e+04  -4.382586369609704e+04  -1.252724132969140e+02   2.627697549120816e+00   9.625884527420098e-01  -2.302001147508321e-02
2017-01-01T13:25:50.000   1.438969656033710e+04  -4.381622890796870e+04  -1.255025881815375e+02   2.627113423902806e+00   9.643690905834200e-01  -2.301496298658975e-02
2017-01-01T13:26:00.000   1.441596476986176e+04  -4.380657631485305e+04  -1.257327125331931e+02   2.626528194419857e+00   9.661494482321041e-01  -2.300990483558020e-02
2017-01-01T13:26:10.000   1.444222712129768e+04  -4.379690591966389e+04  -1.259627862526379e+02   2.625941860711515e+00   9.679295251102964e-01  -2.300483702235550e-02
2017-01-01T13:26:20.000   1.446848360363194e+04  -4.378721772520168e+04  -1.261928092435063e+02   2.625354422810219e+00   9.697093206623164e-01  -2.299975954715512e-02
2017-01-01T13:26:30.000   1.449473420583337e+04  -4.377751173427887e+04  -1.264227814092728e+02   2.624765880748898e+00   9.714888343310845e-01  -2.299467241022279e-02
